{
    "links": {
        "self": "http://www.neowsapp.com/rest/v1/neo/3621020?api_key=iIulBulltgU6a56xZRHN4H3l9WmuAYTsLGpBGhQ2"
    },
    "id": "3621020",
    "neo_reference_id": "3621020",
    "name": "(2012 XL134)",
    "designation": "2012 XL134",
    "nasa_jpl_url": "http://ssd.jpl.nasa.gov/sbdb.cgi?sstr=3621020",
    "absolute_magnitude_h": 27.8,
    "estimated_diameter": {
        "kilometers": {
            "estimated_diameter_min": 0.0073207399,
            "estimated_diameter_max": 0.016369672
        },
        "meters": {
            "estimated_diameter_min": 7.3207398935,
            "estimated_diameter_max": 16.3696720474
        },
        "miles": {
            "estimated_diameter_min": 0.0045488955,
            "estimated_diameter_max": 0.0101716395
        },
        "feet": {
            "estimated_diameter_min": 24.0181762721,
            "estimated_diameter_max": 53.70627484
        }
    },
    "is_potentially_hazardous_asteroid": false,
    "close_approach_data": [
        {
            "close_approach_date": "2012-12-15",
            "close_approach_date_full": "2012-Dec-15 15:43",
            "epoch_date_close_approach": 1355586180000,
            "relative_velocity": {
                "kilometers_per_second": "10.0460544435",
                "kilometers_per_hour": "36165.7959965521",
                "miles_per_hour": "22472.0191846354"
            },
            "miss_distance": {
                "astronomical": "0.0018416712",
                "lunar": "0.7164100968",
                "kilometers": "275510.088760344",
                "miles": "171194.0307829872"
            },
            "orbiting_body": "Earth"
        },
        {
            "close_approach_date": "2012-12-15",
            "close_approach_date_full": "2012-Dec-15 17:16",
            "epoch_date_close_approach": 1355591760000,
            "relative_velocity": {
                "kilometers_per_second": "11.0943849363",
                "kilometers_per_hour": "39939.7857706174",
                "miles_per_hour": "24817.0296639705"
            },
            "miss_distance": {
                "astronomical": "0.0040042666",
                "lunar": "1.5576597074",
                "kilometers": "599029.754272142",
                "miles": "372219.8292418796"
            },
            "orbiting_body": "Moon"
        }
    ],
    "orbital_data": {
        "orbit_id": "6",
        "orbit_determination_date": "2017-04-06 08:47:35",
        "first_observation_date": "2012-12-13",
        "last_observation_date": "2012-12-14",
        "data_arc_in_days": 1,
        "observations_used": 23,
        "orbit_uncertainty": "8",
        "minimum_orbit_intersection": ".00132616",
        "jupiter_tisserand_invariant": "3.127",
        "epoch_osculation": "2456275.5",
        "eccentricity": ".6304927186808977",
        "semi_major_axis": "2.551067766942374",
        "inclination": ".5708670592427481",
        "ascending_node_longitude": "256.3122628958826",
        "orbital_period": "1488.268946284653",
        "perihelion_distance": ".9426381150236698",
        "perihelion_argument": "214.9962779802808",
        "aphelion_distance": "4.159497418861078",
        "perihelion_time": "2456297.647007359639",
        "mean_anomaly": "354.6428213332181",
        "mean_motion": ".2418917635140555",
        "equinox": "J2000",
        "orbit_class": {
            "orbit_class_type": "APO",
            "orbit_class_description": "Near-Earth asteroid orbits which cross the Earth’s orbit similar to that of 1862 Apollo",
            "orbit_class_range": "a (semi-major axis) > 1.0 AU; q (perihelion) < 1.017 AU"
        }
    },
    "is_sentry_object": false
}